STARLINK-1686           
1 46328U 20062D   26068.94194689  .00125350  00000+0  99254-3 0  9992
2 46328  53.0437 313.2055 0005526 281.1531  78.8864 15.70442116305229
STARLINK-11196 [DTC]    
1 60408U 24141L   26068.44598756 -.00000938  00000+0 -28837-5 0  9994
2 60408  53.1589  87.5338 0001428  69.0438 291.0733 15.69705652 91708
